[{"OBJECT_NAME":"STSAT-3","OBJECT_ID":"2013-066G","EPOCH":"2026-03-09T22:41:44.680992","MEAN_MOTION":15.02088505,"ECCENTRICITY":0.0011318,"INCLINATION":97.6065,"RA_OF_ASC_NODE":40.5626,"ARG_OF_PERICENTER":13.5672,"MEAN_ANOMALY":346.5855,"EPHEMERIS_TYPE":0,"CLASSIFICATION_TYPE":"U","NORAD_CAT_ID":39422,"ELEMENT_SET_NO":999,"REV_AT_EPOCH":66930,"BSTAR":0.00035941523,"MEAN_MOTION_DOT":4.668e-5,"MEAN_MOTION_DDOT":0},{"OBJECT_NAME":"STARLINK-4414","OBJECT_ID":"2022-084AA","EPOCH":"2026-03-09T21:00:41.249088","MEAN_MOTION":15.01269066,"ECCENTRICITY":0.00029931,"INCLINATION":97.6036,"RA_OF_ASC_NODE":130.3813,"ARG_OF_PERICENTER":194.6003,"MEAN_ANOMALY":165.5136,"EPHEMERIS_TYPE":0,"CLASSIFICATION_TYPE":"U","NORAD_CAT_ID":53213,"ELEMENT_SET_NO":999,"REV_AT_EPOCH":19986,"BSTAR":-8.7124721e-5,"MEAN_MOTION_DOT":-1.178e-5,"MEAN_MOTION_DDOT":0}]
